NORAD_CAT_ID,OBJECT_NAME,OBJECT_TYPE,EPOCH,MEAN_MOTION,ECCENTRICITY,INCLINATION,RA_OF_ASC_NODE,ARG_OF_PERICENTER,MEAN_ANOMALY,BSTAR,MEAN_MOTION_DOT,MEAN_MOTION_DDOT,TLE_LINE0,TLE_LINE1,TLE_LINE2,SEMIMAJOR_AXIS,PERIOD,APOGEE,PERIGEE,DECAYED
52305.0,STARLINK-3724,PAYLOAD,2023-12-02 22:17:53,15.08830567,0.000139,53.2152,215.189,115.1489,244.9647,-7.5703e-05,-1.492e-05,0.0,0 STARLINK-3724,1 52305U 22041AW  23336.92909236 -.00001492  00000-0 -75703-4 0  9995,2 52305  53.2152 215.1890 0001390 115.1489 244.9647 15.08830567 89548,6917.909,95.438,540.736,538.813,0.0
52305.0,STARLINK-3724,PAYLOAD,2023-12-04 01:19:27,15.08840502,0.0001619,53.2162,210.129,105.5881,254.529,0.00014371,2e-05,0.0,0 STARLINK-3724,1 52305U 22041AW  23338.05517530  .00002000  00000-0  14371-3 0  9990,2 52305  53.2162 210.1290 0001619 105.5881 254.5290 15.08840502 90937,6917.879,95.438,540.864,538.624,0.0
52305.0,STARLINK-3724,PAYLOAD,2023-12-05 01:10:13,15.08850841,0.0001518,53.2154,205.67,80.8303,279.286,0.00033709,5.082e-05,0.0,0 STARLINK-3724,1 52305U 22041AW  23339.04877197  .00005082  00000-0  33709-3 0  9997,2 52305  53.2154 205.6700 0001518  80.8303 279.2860 15.08850841 89869,6917.847,95.437,540.762,538.662,0.0
52305.0,STARLINK-3724,PAYLOAD,2023-12-05 15:28:42,15.08845952,0.0001754,53.2154,202.9962,61.5242,298.5926,3.8008e-05,3.17e-06,0.0,0 STARLINK-3724,1 52305U 22041AW  23339.64493263  .00000317  00000-0  38008-4 0  9995,2 52305  53.2154 202.9962 0001754  61.5242 298.5926 15.08845952 91170,6917.862,95.437,540.941,538.514,0.0
52305.0,STARLINK-3724,PAYLOAD,2023-12-06 01:01:00,15.088471,0.0001853,53.216,201.2124,63.938,296.1803,3.8969e-05,3.32e-06,0.0,0 STARLINK-3724,1 52305U 22041AW  23340.04237018  .00000332  00000-0  38969-4 0  9998,2 52305  53.2160 201.2124 0001853  63.9380 296.1803 15.08847100 90015,6917.859,95.437,541.006,538.442,0.0
52305.0,STARLINK-3724,PAYLOAD,2023-12-07 00:51:48,15.08837659,0.0001765,53.2163,196.7496,76.3619,283.7569,-5.3465e-05,-1.139e-05,0.0,0 STARLINK-3724,1 52305U 22041AW  23341.03597316 -.00001139  00000-0 -53465-4 0  9994,2 52305  53.2163 196.7496 0001765  76.3619 283.7569 15.08837659 91383,6917.888,95.438,540.974,538.532,0.0
52305.0,STARLINK-3724,PAYLOAD,2023-12-08 00:42:34,15.08840476,0.000178,53.2161,192.2892,77.0167,283.1024,1.8454e-05,6e-08,0.0,0 STARLINK-3724,1 52305U 22041AW  23342.02957167  .00000006  00000-0  18454-4 0  9997,2 52305  53.2161 192.2892 0001780  77.0167 283.1024 15.08840476 90318,6917.879,95.438,540.975,538.513,0.0
52305.0,STARLINK-3724,PAYLOAD,2023-12-09 13:16:27,15.08836752,0.0002073,53.2161,185.4533,67.486,292.6352,1.8773e-05,1.1e-07,0.0,0 STARLINK-3724,1 52305U 22041AW  23343.55309702  .00000011  00000-0  18773-4 0  9992,2 52305  53.2161 185.4533 0002073  67.4860 292.6352 15.08836752 90549,6917.89,95.438,541.189,538.321,0.0
52305.0,STARLINK-3724,PAYLOAD,2023-12-09 16:27:13,15.08840086,0.0001983,53.2158,184.8581,65.5768,294.5431,1.0901e-05,-1.15e-06,0.0,0 STARLINK-3724,1 52305U 22041AW  23343.68557532 -.00000115  00000-0  10901-4 0  9993,2 52305  53.2158 184.8581 0001983  65.5768 294.5431 15.08840086 91787,6917.88,95.438,541.117,538.373,0.0
52305.0,STARLINK-3724,PAYLOAD,2023-12-10 13:07:14,15.08842894,0.0001748,53.215,180.9904,94.8371,265.2821,5.6484e-05,6.11e-06,0.0,0 STARLINK-3724,1 52305U 22041AW  23344.54669173  .00000611  00000-0  56484-4 0  9990,2 52305  53.2150 180.9904 0001748  94.8371 265.2821 15.08842894 90695,6917.872,95.437,540.946,538.527,0.0
52305.0,STARLINK-3724,PAYLOAD,2023-12-10 19:28:46,15.08843117,0.0001501,53.2154,179.8019,91.7594,268.357,6.0166e-05,6.7e-06,0.0,0 STARLINK-3724,1 52305U 22041AW  23344.81165226  .00000670  00000-0  60166-4 0  9997,2 52305  53.2154 179.8019 0001501  91.7594 268.3570 15.08843117 91957,6917.871,95.437,540.774,538.697,0.0
52305.0,STARLINK-3724,PAYLOAD,2023-12-11 19:19:33,15.0884304,0.0001513,53.2154,175.3419,85.2096,274.9069,4.6906e-05,4.59e-06,0.0,0 STARLINK-3724,1 52305U 22041AW  23345.80525130  .00000459  00000-0  46906-4 0  9992,2 52305  53.2154 175.3419 0001513  85.2096 274.9069 15.08843040 90882,6917.871,95.437,540.783,538.689,0.0
52305.0,STARLINK-3724,PAYLOAD,2023-12-12 17:34:57,15.0884041,0.0001512,53.2163,171.1783,99.583,260.5333,1.0755e-05,-1.17e-06,0.0,0 STARLINK-3724,1 52305U 22041AW  23346.73261229 -.00000117  00000-0  10755-4 0  9996,2 52305  53.2163 171.1783 0001512  99.5830 260.5333 15.08840410 92248,6917.879,95.438,540.79,538.698,0.0
52305.0,STARLINK-3724,PAYLOAD,2023-12-13 19:01:07,15.08838959,0.0001468,53.2164,166.4201,96.4191,263.6969,3.1629e-05,2.15e-06,0.0,0 STARLINK-3724,1 52305U 22041AW  23347.79245288  .00000215  00000-0  31629-4 0  9991,2 52305  53.2164 166.4201 0001468  96.4191 263.6969 15.08838959 92409,6917.884,95.438,540.764,538.733,0.0
52305.0,STARLINK-3724,PAYLOAD,2023-12-14 17:16:32,15.08836007,0.0001467,53.216,162.2552,100.5555,259.5602,4.2396e-05,3.87e-06,0.0,0 STARLINK-3724,1 52305U 22041AW  23348.71981596  .00000387  00000-0  42396-4 0  9996,2 52305  53.2160 162.2552 0001467 100.5555 259.5602 15.08836007 91328,6917.893,95.438,540.772,538.743,0.0
52305.0,STARLINK-3724,PAYLOAD,2023-12-15 18:42:42,15.08833952,0.0001378,53.2158,157.4982,92.777,267.3379,4.6472e-06,-2.14e-06,0.0,0 STARLINK-3724,1 52305U 22041AW  23349.77966244 -.00000214  00000-0  46472-5 0  9996,2 52305  53.2158 157.4982 0001378  92.7770 267.3379 15.08833952 92707,6917.899,95.438,540.717,538.811,0.0
52305.0,STARLINK-3724,PAYLOAD,2023-12-16 18:33:29,15.08836809,0.0001368,53.2163,153.0377,83.9913,276.1235,6.073e-05,6.79e-06,0.0,0 STARLINK-3724,1 52305U 22041AW  23350.77326330  .00000679  00000-0  60730-4 0  9990,2 52305  53.2163 153.0377 0001368  83.9913 276.1235 15.08836809 91637,6917.89,95.438,540.702,538.809,0.0
52305.0,STARLINK-3724,PAYLOAD,2023-12-17 18:24:16,15.08843867,0.000149,53.2165,148.577,74.5601,285.5556,0.00013751,1.901e-05,0.0,0 STARLINK-3724,1 52305U 22041AW  23351.76685879  .00001901  00000-0  13751-3 0  9995,2 52305  53.2165 148.5770 0001490  74.5601 285.5556 15.08843867 93006,6917.869,95.437,540.764,538.703,0.0
52305.0,STARLINK-3724,PAYLOAD,2023-12-18 15:04:17,15.088446,0.0001631,53.2171,144.7105,70.19,289.9267,7.9643e-05,9.8e-06,0.0,0 STARLINK-3724,1 52305U 22041AW  23352.62797954  .00000980  00000-0  79643-4 0  9998,2 52305  53.2171 144.7105 0001631  70.1900 289.9267 15.08844600 91915,6917.866,95.437,540.86,538.603,0.0
52305.0,STARLINK-3724,PAYLOAD,2023-12-19 14:55:04,15.08845023,0.0001299,53.2164,140.2529,90.882,269.2321,1.2562e-06,-2.68e-06,0.0,0 STARLINK-3724,1 52305U 22041AW  23353.62157830 -.00000268  00000-0  12562-5 0  9990,2 52305  53.2164 140.2529 0001299  90.8820 269.2321 15.08845023 92067,6917.865,95.437,540.629,538.831,0.0
52305.0,STARLINK-3724,PAYLOAD,2023-12-19 16:30:27,15.08844925,0.0001301,53.2165,139.9556,90.7116,269.4025,-1.6547e-06,-3.14e-06,0.0,0 STARLINK-3724,1 52305U 22041AW  23353.68781806 -.00000314  00000-0 -16547-5 0  9992,2 52305  53.2165 139.9556 0001301  90.7116 269.4025 15.08844925 93293,6917.865,95.437,540.63,538.83,0.0
52305.0,STARLINK-3724,PAYLOAD,2023-12-20 13:10:28,15.08835333,0.0001261,53.2165,136.087,89.2397,270.874,7.1347e-06,-1.74e-06,0.0,0 STARLINK-3724,1 52305U 22041AW  23354.54894331 -.00000174  00000-0  71347-5 0  9998,2 52305  53.2165 136.0870 0001261  89.2397 270.8740 15.08835333 92202,6917.895,95.438,540.632,538.887,0.0
52305.0,STARLINK-3724,PAYLOAD,2023-12-20 16:21:14,15.08839106,0.0001283,53.2163,135.4928,82.1004,278.0133,3.2643e-05,2.32e-06,0.0,0 STARLINK-3724,1 52305U 22041AW  23354.68142064  .00000232  00000-0  32643-4 0  9991,2 52305  53.2163 135.4928 0001283  82.1004 278.0133 15.08839106 93443,6917.883,95.438,540.636,538.861,0.0
52305.0,STARLINK-3724,PAYLOAD,2023-12-21 14:36:38,15.08840097,0.0001326,53.2165,131.33,80.4144,279.6998,8.5915e-05,1.08e-05,0.0,0 STARLINK-3724,1 52305U 22041AW  23355.60877923  .00001080  00000-0  85915-4 0  9995,2 52305  53.2165 131.3300 0001326  80.4144 279.6998 15.08840097 92365,6917.88,95.438,540.662,538.828,0.0
52305.0,STARLINK-3724,PAYLOAD,2023-12-22 11:16:39,15.08837991,0.0001349,53.2167,127.4653,73.5278,286.5862,3.5563e-05,2.78e-06,0.0,0 STARLINK-3724,1 52305U 22041AW  23356.46990445  .00000278  00000-0  35563-4 0  9997,2 52305  53.2167 127.4653 0001349  73.5278 286.5862 15.08837991 93716,6917.887,95.438,540.685,538.818,0.0
52305.0,STARLINK-3724,PAYLOAD,2023-12-22 14:27:25,15.08840493,0.0001323,53.2167,126.8708,73.099,287.0147,5.0592e-05,5.17e-06,0.0,0 STARLINK-3724,1 52305U 22041AW  23356.60238265  .00000517  00000-0  50592-4 0  9993,2 52305  53.2167 126.8708 0001323  73.0990 287.0147 15.08840493 92518,6917.879,95.438,540.659,538.829,0.0
52305.0,STARLINK-3724,PAYLOAD,2023-12-22 16:02:48,15.08842824,0.000132,53.2168,126.5728,77.0313,283.0826,7.0144e-05,8.29e-06,0.0,0 STARLINK-3724,1 52305U 22041AW  23356.66862037  .00000829  00000-0  70144-4 0  9990,2 52305  53.2168 126.5728 0001320  77.0313 283.0826 15.08842824 92529,6917.872,95.437,540.65,538.824,0.0
52305.0,STARLINK-3724,PAYLOAD,2023-12-23 12:42:50,15.08798492,0.0001473,53.2164,122.7081,92.0492,268.0669,0.00047529,7.276e-05,0.0,0 STARLINK-3724,1 52305U 22041AW  23357.52975327  .00007276  00000-0  47529-3 0  9996,2 52305  53.2164 122.7081 0001473  92.0492 268.0669 15.08798492 92652,6918.007,95.44,540.891,538.853,0.0
52305.0,STARLINK-3724,PAYLOAD,2023-12-23 15:53:37,15.08771647,0.00017,53.2177,122.1141,79.7575,280.3609,0.00094244,0.00014715,0.0,0 STARLINK-3724,1 52305U 22041AW  23357.66223860  .00014715  00000-0  94244-3 0  9991,2 52305  53.2177 122.1141 0001700  79.7575 280.3609 15.08771647 93895,6918.089,95.442,541.13,538.778,0.0
52305.0,STARLINK-3724,PAYLOAD,2023-12-24 14:09:01,15.08819408,0.0001166,53.2177,117.9483,88.921,271.1916,-0.00015878,-2.812e-05,0.0,0 STARLINK-3724,1 52305U 22041AW  23358.58960388 -.00002812  00000-0 -15878-3 0  9999,2 52305  53.2177 117.9483 0001166  88.9210 271.1916 15.08819408 92818,6917.943,95.439,540.615,539.002,0.0
